BEIDOU-3 G1 (C59)       
1 43683U 18085A   26116.52571090 -.00000119  00000+0  00000+0 0  9991
2 43683   2.9453  98.7437 0007336 333.3570 131.6188  1.00265487 27549
BEIDOU-3 M17 (C36)      
1 43706U 18093A   26114.81923216 -.00000012  00000+0  00000+0 0  9999
2 43706  54.1668 184.1070 0008969 291.5236 205.5157  1.86228337 50542
BEIDOU-3 M18 (C37)      
1 43707U 18093B   26112.86677390 -.00000002  00000+0  00000+0 0  9991
2 43707  54.1674 184.1656 0006962 325.1061  34.9114  1.86226577 50508
BEIDOU-3 IGSO-1 (C38)   
1 44204U 19023A   26110.03709628 -.00000228  00000+0  00000+0 0  9995
2 44204  58.6186  38.2497 0024357 235.9811  64.3555  1.00256582  6624
BEIDOU-2 G8 (C01)       
1 44231U 19027A   26116.52266662 -.00000259  00000+0  00000+0 0  9999
2 44231   1.5290  74.3674 0011020 279.0806 193.7404  1.00268277 25569
BEIDOU-3 IGSO-2 (C39)   
1 44337U 19035A   26116.51763993 -.00000097  00000+0  00000+0 0  9993
2 44337  55.2353 159.3158 0039369 215.1492 145.9118  1.00282508 25150
BEIDOU-3 M24 (C46)      
1 44542U 19061A   26112.39917424  .00000003  00000+0  00000+0 0  9998
2 44542  54.3942 184.6097 0008007   7.0098 353.0664  1.86229000 44757
BEIDOU-3 M23 (C45)      
1 44543U 19061B   26116.27266916 -.00000002  00000+0  00000+0 0  9993
2 44543  54.3929 184.4471 0005041 348.5066   0.4603  1.86227142 44829
BEIDOU-3 IGSO-3 (C40)   
1 44709U 19073A   26115.86310865 -.00000195  00000+0  00000+0 0  9990
2 44709  54.8923 281.4605 0042116 188.7957 171.0495  1.00252806 23930
BEIDOU-3 M22 (C44)      
1 44793U 19078A   26114.92307155 -.00000048  00000+0  00000+0 0  9999
2 44793  53.9851 301.7007 0007319  45.7814 314.2766  1.86226959 43652
BEIDOU-3 M21 (C43)      
1 44794U 19078B   26115.60009457 -.00000052  00000+0  00000+0 0  9995
2 44794  53.9580 301.6395 0005177  43.1798 316.8583  1.86227485 43676
BEIDOU-3 M19 (C41)      
1 44864U 19090A   26115.30878074 -.00000028  00000+0  00000+0 0  9996
2 44864  56.5154  64.5372 0019827 295.9075  65.7258  1.86231193 43256
BEIDOU-3 M20 (C42)      
1 44865U 19090B   26114.36394936 -.00000022  00000+0  00000+0 0  9996
2 44865  56.5162  64.6031 0017504 308.2106 229.5642  1.86231081 43211
BEIDOU-3 G2 (C60)       
1 45344U 20017A   26116.50983991 -.00000151  00000+0  00000+0 0  9996
2 45344   2.7623  46.5278 0002527 347.1589  84.4073  1.00271418 22742
BEIDOU-3 G3 (C61)       
1 45807U 20040A   26116.51885309 -.00000364  00000+0  00000+0 0  9997
2 45807   2.3224  67.2935 0003731 329.1363 115.4190  1.00270512 21554
BEIDOU-3 G4 (C62)       
1 56564U 23066A   26116.52179995 -.00000294  00000+0  00000+0 0  9990
2 56564   0.5575 319.9726 0002779 160.7086  61.7753  1.00272471 10879
BEIDOU-3 M28 (C50)      
1 58654U 23207A   26115.14035340 -.00000030  00000+0  00000+0 0  9999
2 58654  55.7083  64.0917 0004637 322.6569  37.2856  1.86229672 15851
