[{"OBJECT_NAME":"BEIDOU-3 G1 (C59)","OBJECT_ID":"2018-085A","EPOCH":"2026-04-26T12:37:01.421760","MEAN_MOTION":1.00265487,"ECCENTRICITY":0.0007336,"INCLINATION":2.9453,"RA_OF_ASC_NODE":98.7437,"ARG_OF_PERICENTER":333.357,"MEAN_ANOMALY":131.6188,"EPHEMERIS_TYPE":0,"CLASSIFICATION_TYPE":"U","NORAD_CAT_ID":43683,"ELEMENT_SET_NO":999,"REV_AT_EPOCH":2754,"BSTAR":0,"MEAN_MOTION_DOT":-1.19e-6,"MEAN_MOTION_DDOT":0},{"OBJECT_NAME":"BEIDOU-3 M17 (C36)","OBJECT_ID":"2018-093A","EPOCH":"2026-04-24T19:39:41.658624","MEAN_MOTION":1.86228337,"ECCENTRICITY":0.00089699,"INCLINATION":54.1668,"RA_OF_ASC_NODE":184.107,"ARG_OF_PERICENTER":291.5236,"MEAN_ANOMALY":205.5157,"EPHEMERIS_TYPE":0,"CLASSIFICATION_TYPE":"U","NORAD_CAT_ID":43706,"ELEMENT_SET_NO":999,"REV_AT_EPOCH":5054,"BSTAR":0,"MEAN_MOTION_DOT":-1.2e-7,"MEAN_MOTION_DDOT":0},{"OBJECT_NAME":"BEIDOU-3 M18 (C37)","OBJECT_ID":"2018-093B","EPOCH":"2026-04-22T20:48:09.264960","MEAN_MOTION":1.86226577,"ECCENTRICITY":0.00069625,"INCLINATION":54.1674,"RA_OF_ASC_NODE":184.1656,"ARG_OF_PERICENTER":325.1061,"MEAN_ANOMALY":34.9114,"EPHEMERIS_TYPE":0,"CLASSIFICATION_TYPE":"U","NORAD_CAT_ID":43707,"ELEMENT_SET_NO":999,"REV_AT_EPOCH":5050,"BSTAR":0,"MEAN_MOTION_DOT":-2.0e-8,"MEAN_MOTION_DDOT":0},{"OBJECT_NAME":"BEIDOU-3 IGSO-1 (C38)","OBJECT_ID":"2019-023A","EPOCH":"2026-04-20T00:53:25.118592","MEAN_MOTION":1.00256582,"ECCENTRICITY":0.00243579,"INCLINATION":58.6186,"RA_OF_ASC_NODE":38.2497,"ARG_OF_PERICENTER":235.9811,"MEAN_ANOMALY":64.3555,"EPHEMERIS_TYPE":0,"CLASSIFICATION_TYPE":"U","NORAD_CAT_ID":44204,"ELEMENT_SET_NO":999,"REV_AT_EPOCH":662,"BSTAR":0,"MEAN_MOTION_DOT":-2.28e-6,"MEAN_MOTION_DDOT":0},{"OBJECT_NAME":"BEIDOU-2 G8 (C01)","OBJECT_ID":"2019-027A","EPOCH":"2026-04-26T12:32:38.395968","MEAN_MOTION":1.00268277,"ECCENTRICITY":0.001102,"INCLINATION":1.529,"RA_OF_ASC_NODE":74.3674,"ARG_OF_PERICENTER":279.0806,"MEAN_ANOMALY":193.7404,"EPHEMERIS_TYPE":0,"CLASSIFICATION_TYPE":"U","NORAD_CAT_ID":44231,"ELEMENT_SET_NO":999,"REV_AT_EPOCH":2556,"BSTAR":0,"MEAN_MOTION_DOT":-2.59e-6,"MEAN_MOTION_DDOT":0},{"OBJECT_NAME":"BEIDOU-3 IGSO-2 (C39)","OBJECT_ID":"2019-035A","EPOCH":"2026-04-26T12:25:24.089952","MEAN_MOTION":1.00282508,"ECCENTRICITY":0.0039369,"INCLINATION":55.2353,"RA_OF_ASC_NODE":159.3158,"ARG_OF_PERICENTER":215.1492,"MEAN_ANOMALY":145.9118,"EPHEMERIS_TYPE":0,"CLASSIFICATION_TYPE":"U","NORAD_CAT_ID":44337,"ELEMENT_SET_NO":999,"REV_AT_EPOCH":2515,"BSTAR":0,"MEAN_MOTION_DOT":-9.7e-7,"MEAN_MOTION_DDOT":0},{"OBJECT_NAME":"BEIDOU-3 M24 (C46)","OBJECT_ID":"2019-061A","EPOCH":"2026-04-22T09:34:48.654336","MEAN_MOTION":1.86229,"ECCENTRICITY":0.00080076,"INCLINATION":54.3942,"RA_OF_ASC_NODE":184.6097,"ARG_OF_PERICENTER":7.0098,"MEAN_ANOMALY":353.0664,"EPHEMERIS_TYPE":0,"CLASSIFICATION_TYPE":"U","NORAD_CAT_ID":44542,"ELEMENT_SET_NO":999,"REV_AT_EPOCH":4475,"BSTAR":0,"MEAN_MOTION_DOT":3.0e-8,"MEAN_MOTION_DDOT":0},{"OBJECT_NAME":"BEIDOU-3 M23 (C45)","OBJECT_ID":"2019-061B","EPOCH":"2026-04-26T06:32:38.615424","MEAN_MOTION":1.86227142,"ECCENTRICITY":0.0005041,"INCLINATION":54.3929,"RA_OF_ASC_NODE":184.4471,"ARG_OF_PERICENTER":348.5066,"MEAN_ANOMALY":0.4603,"EPHEMERIS_TYPE":0,"CLASSIFICATION_TYPE":"U","NORAD_CAT_ID":44543,"ELEMENT_SET_NO":999,"REV_AT_EPOCH":4482,"BSTAR":0,"MEAN_MOTION_DOT":-2.0e-8,"MEAN_MOTION_DDOT":0},{"OBJECT_NAME":"BEIDOU-3 IGSO-3 (C40)","OBJECT_ID":"2019-073A","EPOCH":"2026-04-25T20:42:52.587360","MEAN_MOTION":1.00252806,"ECCENTRICITY":0.00421169,"INCLINATION":54.8923,"RA_OF_ASC_NODE":281.4605,"ARG_OF_PERICENTER":188.7957,"MEAN_ANOMALY":171.0495,"EPHEMERIS_TYPE":0,"CLASSIFICATION_TYPE":"U","NORAD_CAT_ID":44709,"ELEMENT_SET_NO":999,"REV_AT_EPOCH":2393,"BSTAR":0,"MEAN_MOTION_DOT":-1.95e-6,"MEAN_MOTION_DDOT":0},{"OBJECT_NAME":"BEIDOU-3 M22 (C44)","OBJECT_ID":"2019-078A","EPOCH":"2026-04-24T22:09:13.381920","MEAN_MOTION":1.86226959,"ECCENTRICITY":0.00073196,"INCLINATION":53.9851,"RA_OF_ASC_NODE":301.7007,"ARG_OF_PERICENTER":45.7814,"MEAN_ANOMALY":314.2766,"EPHEMERIS_TYPE":0,"CLASSIFICATION_TYPE":"U","NORAD_CAT_ID":44793,"ELEMENT_SET_NO":999,"REV_AT_EPOCH":4365,"BSTAR":0,"MEAN_MOTION_DOT":-4.8e-7,"MEAN_MOTION_DDOT":0},{"OBJECT_NAME":"BEIDOU-3 M21 (C43)","OBJECT_ID":"2019-078B","EPOCH":"2026-04-25T14:24:08.170848","MEAN_MOTION":1.86227485,"ECCENTRICITY":0.00051771,"INCLINATION":53.958,"RA_OF_ASC_NODE":301.6395,"ARG_OF_PERICENTER":43.1798,"MEAN_ANOMALY":316.8583,"EPHEMERIS_TYPE":0,"CLASSIFICATION_TYPE":"U","NORAD_CAT_ID":44794,"ELEMENT_SET_NO":999,"REV_AT_EPOCH":4367,"BSTAR":0,"MEAN_MOTION_DOT":-5.2e-7,"MEAN_MOTION_DDOT":0},{"OBJECT_NAME":"BEIDOU-3 M19 (C41)","OBJECT_ID":"2019-090A","EPOCH":"2026-04-25T07:24:38.655936","MEAN_MOTION":1.86231193,"ECCENTRICITY":0.00198272,"INCLINATION":56.5154,"RA_OF_ASC_NODE":64.5372,"ARG_OF_PERICENTER":295.9075,"MEAN_ANOMALY":65.7258,"EPHEMERIS_TYPE":0,"CLASSIFICATION_TYPE":"U","NORAD_CAT_ID":44864,"ELEMENT_SET_NO":999,"REV_AT_EPOCH":4325,"BSTAR":0,"MEAN_MOTION_DOT":-2.8e-7,"MEAN_MOTION_DDOT":0},{"OBJECT_NAME":"BEIDOU-3 M20 (C42)","OBJECT_ID":"2019-090B","EPOCH":"2026-04-24T08:44:05.224704","MEAN_MOTION":1.86231081,"ECCENTRICITY":0.00175044,"INCLINATION":56.5162,"RA_OF_ASC_NODE":64.6031,"ARG_OF_PERICENTER":308.2106,"MEAN_ANOMALY":229.5642,"EPHEMERIS_TYPE":0,"CLASSIFICATION_TYPE":"U","NORAD_CAT_ID":44865,"ELEMENT_SET_NO":999,"REV_AT_EPOCH":4321,"BSTAR":0,"MEAN_MOTION_DOT":-2.2e-7,"MEAN_MOTION_DDOT":0},{"OBJECT_NAME":"BEIDOU-3 G2 (C60)","OBJECT_ID":"2020-017A","EPOCH":"2026-04-26T12:14:10.168224","MEAN_MOTION":1.00271418,"ECCENTRICITY":0.0002527,"INCLINATION":2.7623,"RA_OF_ASC_NODE":46.5278,"ARG_OF_PERICENTER":347.1589,"MEAN_ANOMALY":84.4073,"EPHEMERIS_TYPE":0,"CLASSIFICATION_TYPE":"U","NORAD_CAT_ID":45344,"ELEMENT_SET_NO":999,"REV_AT_EPOCH":2274,"BSTAR":0,"MEAN_MOTION_DOT":-1.51e-6,"MEAN_MOTION_DDOT":0},{"OBJECT_NAME":"BEIDOU-3 G3 (C61)","OBJECT_ID":"2020-040A","EPOCH":"2026-04-26T12:27:08.906976","MEAN_MOTION":1.00270512,"ECCENTRICITY":0.0003731,"INCLINATION":2.3224,"RA_OF_ASC_NODE":67.2935,"ARG_OF_PERICENTER":329.1363,"MEAN_ANOMALY":115.419,"EPHEMERIS_TYPE":0,"CLASSIFICATION_TYPE":"U","NORAD_CAT_ID":45807,"ELEMENT_SET_NO":999,"REV_AT_EPOCH":2155,"BSTAR":0,"MEAN_MOTION_DOT":-3.64e-6,"MEAN_MOTION_DDOT":0},{"OBJECT_NAME":"BEIDOU-3 G4 (C62)","OBJECT_ID":"2023-066A","EPOCH":"2026-04-26T12:31:23.515680","MEAN_MOTION":1.00272471,"ECCENTRICITY":0.0002779,"INCLINATION":0.5575,"RA_OF_ASC_NODE":319.9726,"ARG_OF_PERICENTER":160.7086,"MEAN_ANOMALY":61.7753,"EPHEMERIS_TYPE":0,"CLASSIFICATION_TYPE":"U","NORAD_CAT_ID":56564,"ELEMENT_SET_NO":999,"REV_AT_EPOCH":1087,"BSTAR":0,"MEAN_MOTION_DOT":-2.94e-6,"MEAN_MOTION_DDOT":0},{"OBJECT_NAME":"BEIDOU-3 M28 (C50)","OBJECT_ID":"2023-207A","EPOCH":"2026-04-25T03:22:06.533760","MEAN_MOTION":1.86229672,"ECCENTRICITY":0.00046378,"INCLINATION":55.7083,"RA_OF_ASC_NODE":64.0917,"ARG_OF_PERICENTER":322.6569,"MEAN_ANOMALY":37.2856,"EPHEMERIS_TYPE":0,"CLASSIFICATION_TYPE":"U","NORAD_CAT_ID":58654,"ELEMENT_SET_NO":999,"REV_AT_EPOCH":1585,"BSTAR":0,"MEAN_MOTION_DOT":-3.0e-7,"MEAN_MOTION_DDOT":0}]
